[{"OBJECT_NAME":"STARLINK-36914","OBJECT_ID":"2026-037L","EPOCH":"2026-03-05T14:00:01.999872","MEAN_MOTION":15.92986677,"ECCENTRICITY":0.00010549,"INCLINATION":42.9996,"RA_OF_ASC_NODE":223.8349,"ARG_OF_PERICENTER":266.3407,"MEAN_ANOMALY":313.7542,"EPHEMERIS_TYPE":0,"CLASSIFICATION_TYPE":"U","NORAD_CAT_ID":67942,"ELEMENT_SET_NO":999,"REV_AT_EPOCH":253,"BSTAR":-0.0043343401,"MEAN_MOTION_DOT":-0.01564043,"MEAN_MOTION_DDOT":0.00069183731},{"OBJECT_NAME":"STARLINK-36851","OBJECT_ID":"2026-037M","EPOCH":"2026-03-05T14:00:01.999872","MEAN_MOTION":15.93108561,"ECCENTRICITY":0.00012484,"INCLINATION":42.9996,"RA_OF_ASC_NODE":223.8288,"ARG_OF_PERICENTER":275.6811,"MEAN_ANOMALY":306.8915,"EPHEMERIS_TYPE":0,"CLASSIFICATION_TYPE":"U","NORAD_CAT_ID":67943,"ELEMENT_SET_NO":999,"REV_AT_EPOCH":253,"BSTAR":-0.0042619947,"MEAN_MOTION_DOT":-0.01548075,"MEAN_MOTION_DDOT":0.0006797169},{"OBJECT_NAME":"STARLINK-36892","OBJECT_ID":"2026-037N","EPOCH":"2026-03-05T14:00:01.999872","MEAN_MOTION":15.93361807,"ECCENTRICITY":0.00011574,"INCLINATION":42.9995,"RA_OF_ASC_NODE":223.8163,"ARG_OF_PERICENTER":273.7715,"MEAN_ANOMALY":313.7634,"EPHEMERIS_TYPE":0,"CLASSIFICATION_TYPE":"U","NORAD_CAT_ID":67944,"ELEMENT_SET_NO":999,"REV_AT_EPOCH":253,"BSTAR":-0.0041808247,"MEAN_MOTION_DOT":-0.01539126,"MEAN_MOTION_DDOT":0.00067418961},{"OBJECT_NAME":"STARLINK-36908","OBJECT_ID":"2026-037P","EPOCH":"2026-03-05T14:00:01.999872","MEAN_MOTION":15.93619735,"ECCENTRICITY":0.00013093,"INCLINATION":42.9996,"RA_OF_ASC_NODE":223.8012,"ARG_OF_PERICENTER":275.872,"MEAN_ANOMALY":317.4473,"EPHEMERIS_TYPE":0,"CLASSIFICATION_TYPE":"U","NORAD_CAT_ID":67945,"ELEMENT_SET_NO":999,"REV_AT_EPOCH":253,"BSTAR":-0.0041435599,"MEAN_MOTION_DOT":-0.01546323,"MEAN_MOTION_DDOT":0.00068172908},{"OBJECT_NAME":"STARLINK-36909","OBJECT_ID":"2026-037Q","EPOCH":"2026-03-05T14:00:01.999872","MEAN_MOTION":15.93749395,"ECCENTRICITY":0.00012665,"INCLINATION":42.9995,"RA_OF_ASC_NODE":223.7963,"ARG_OF_PERICENTER":277.2388,"MEAN_ANOMALY":318.1203,"EPHEMERIS_TYPE":0,"CLASSIFICATION_TYPE":"U","NORAD_CAT_ID":67946,"ELEMENT_SET_NO":999,"REV_AT_EPOCH":253,"BSTAR":-0.0040796324,"MEAN_MOTION_DOT":-0.01533135,"MEAN_MOTION_DDOT":0.00067194044},{"OBJECT_NAME":"STARLINK-36920","OBJECT_ID":"2026-037R","EPOCH":"2026-03-05T14:00:01.999872","MEAN_MOTION":15.93877527,"ECCENTRICITY":0.00010602,"INCLINATION":42.9998,"RA_OF_ASC_NODE":223.7886,"ARG_OF_PERICENTER":270.8866,"MEAN_ANOMALY":327.401,"EPHEMERIS_TYPE":0,"CLASSIFICATION_TYPE":"U","NORAD_CAT_ID":67947,"ELEMENT_SET_NO":999,"REV_AT_EPOCH":253,"BSTAR":-0.0040694156,"MEAN_MOTION_DOT":-0.01539629,"MEAN_MOTION_DDOT":0.0006780434},{"OBJECT_NAME":"STARLINK-36873","OBJECT_ID":"2026-037S","EPOCH":"2026-03-05T14:00:01.999872","MEAN_MOTION":15.94008194,"ECCENTRICITY":0.00012906,"INCLINATION":42.9998,"RA_OF_ASC_NODE":223.7827,"ARG_OF_PERICENTER":276.3656,"MEAN_ANOMALY":324.3023,"EPHEMERIS_TYPE":0,"CLASSIFICATION_TYPE":"U","NORAD_CAT_ID":67948,"ELEMENT_SET_NO":999,"REV_AT_EPOCH":253,"BSTAR":-0.0040311337,"MEAN_MOTION_DOT":-0.01535879,"MEAN_MOTION_DDOT":0.00067588645},{"OBJECT_NAME":"STARLINK-36863","OBJECT_ID":"2026-037T","EPOCH":"2026-03-05T14:00:01.999872","MEAN_MOTION":15.94123824,"ECCENTRICITY":0.00012501,"INCLINATION":42.9998,"RA_OF_ASC_NODE":223.7752,"ARG_OF_PERICENTER":270.7105,"MEAN_ANOMALY":332.9303,"EPHEMERIS_TYPE":0,"CLASSIFICATION_TYPE":"U","NORAD_CAT_ID":67949,"ELEMENT_SET_NO":999,"REV_AT_EPOCH":253,"BSTAR":-0.0039896202,"MEAN_MOTION_DOT":-0.01529534,"MEAN_MOTION_DDOT":0.00067153541},{"OBJECT_NAME":"STARLINK-36887","OBJECT_ID":"2026-037U","EPOCH":"2026-03-05T14:00:01.999872","MEAN_MOTION":15.94254054,"ECCENTRICITY":0.0001265,"INCLINATION":42.9997,"RA_OF_ASC_NODE":223.7673,"ARG_OF_PERICENTER":266.2153,"MEAN_ANOMALY":340.4856,"EPHEMERIS_TYPE":0,"CLASSIFICATION_TYPE":"U","NORAD_CAT_ID":67950,"ELEMENT_SET_NO":999,"REV_AT_EPOCH":253,"BSTAR":-0.0039827429,"MEAN_MOTION_DOT":-0.01537455,"MEAN_MOTION_DDOT":0.00067882337},{"OBJECT_NAME":"STARLINK-36897","OBJECT_ID":"2026-037V","EPOCH":"2026-03-05T14:00:01.999872","MEAN_MOTION":15.94369754,"ECCENTRICITY":0.00011775,"INCLINATION":42.9999,"RA_OF_ASC_NODE":223.7609,"ARG_OF_PERICENTER":272.122,"MEAN_ANOMALY":337.2351,"EPHEMERIS_TYPE":0,"CLASSIFICATION_TYPE":"U","NORAD_CAT_ID":67951,"ELEMENT_SET_NO":999,"REV_AT_EPOCH":253,"BSTAR":-0.0039451677,"MEAN_MOTION_DOT":-0.01532447,"MEAN_MOTION_DDOT":0.00067554209},{"OBJECT_NAME":"STARLINK-36381","OBJECT_ID":"2026-037W","EPOCH":"2026-03-05T14:00:01.999872","MEAN_MOTION":15.94633641,"ECCENTRICITY":0.00015471,"INCLINATION":42.9999,"RA_OF_ASC_NODE":223.7487,"ARG_OF_PERICENTER":270.0712,"MEAN_ANOMALY":344.0735,"EPHEMERIS_TYPE":0,"CLASSIFICATION_TYPE":"U","NORAD_CAT_ID":67952,"ELEMENT_SET_NO":999,"REV_AT_EPOCH":253,"BSTAR":-0.0038987227,"MEAN_MOTION_DOT":-0.0153601,"MEAN_MOTION_DDOT":0.00068022617},{"OBJECT_NAME":"STARLINK-36824","OBJECT_ID":"2026-037X","EPOCH":"2026-03-05T14:00:01.999872","MEAN_MOTION":15.94502633,"ECCENTRICITY":0.00013059,"INCLINATION":43,"RA_OF_ASC_NODE":223.7548,"ARG_OF_PERICENTER":274.2861,"MEAN_ANOMALY":337.4733,"EPHEMERIS_TYPE":0,"CLASSIFICATION_TYPE":"U","NORAD_CAT_ID":67953,"ELEMENT_SET_NO":999,"REV_AT_EPOCH":253,"BSTAR":-0.0039260265,"MEAN_MOTION_DOT":-0.01535883,"MEAN_MOTION_DDOT":0.00067923099},{"OBJECT_NAME":"STARLINK-36869","OBJECT_ID":"2026-037Y","EPOCH":"2026-03-05T14:00:01.999872","MEAN_MOTION":15.94751795,"ECCENTRICITY":0.0001316,"INCLINATION":42.9998,"RA_OF_ASC_NODE":223.7432,"ARG_OF_PERICENTER":274.9391,"MEAN_ANOMALY":341.2586,"EPHEMERIS_TYPE":0,"CLASSIFICATION_TYPE":"U","NORAD_CAT_ID":67954,"ELEMENT_SET_NO":999,"REV_AT_EPOCH":253,"BSTAR":-0.0038323347,"MEAN_MOTION_DOT":-0.0151962,"MEAN_MOTION_DDOT":0.00066773331},{"OBJECT_NAME":"STARLINK-36872","OBJECT_ID":"2026-037Z","EPOCH":"2026-03-05T14:00:01.999872","MEAN_MOTION":15.94995637,"ECCENTRICITY":0.0001306,"INCLINATION":42.9997,"RA_OF_ASC_NODE":223.7293,"ARG_OF_PERICENTER":273.7893,"MEAN_ANOMALY":347.7753,"EPHEMERIS_TYPE":0,"CLASSIFICATION_TYPE":"U","NORAD_CAT_ID":67955,"ELEMENT_SET_NO":999,"REV_AT_EPOCH":253,"BSTAR":-0.0037726039,"MEAN_MOTION_DOT":-0.01515748,"MEAN_MOTION_DDOT":0.0006662406},{"OBJECT_NAME":"STARLINK-36918","OBJECT_ID":"2026-037AA","EPOCH":"2026-03-05T14:00:01.999872","MEAN_MOTION":15.95114707,"ECCENTRICITY":0.00013906,"INCLINATION":43,"RA_OF_ASC_NODE":223.7223,"ARG_OF_PERICENTER":272.6612,"MEAN_ANOMALY":351.7303,"EPHEMERIS_TYPE":0,"CLASSIFICATION_TYPE":"U","NORAD_CAT_ID":67956,"ELEMENT_SET_NO":999,"REV_AT_EPOCH":253,"BSTAR":-0.0037322503,"MEAN_MOTION_DOT":-0.01509296,"MEAN_MOTION_DDOT":0.00066183243},{"OBJECT_NAME":"STARLINK-36829","OBJECT_ID":"2026-037AB","EPOCH":"2026-03-05T14:00:01.999872","MEAN_MOTION":15.94871717,"ECCENTRICITY":0.00014675,"INCLINATION":42.9997,"RA_OF_ASC_NODE":223.737,"ARG_OF_PERICENTER":275.6587,"MEAN_ANOMALY":343.0379,"EPHEMERIS_TYPE":0,"CLASSIFICATION_TYPE":"U","NORAD_CAT_ID":67957,"ELEMENT_SET_NO":999,"REV_AT_EPOCH":253,"BSTAR":-0.0037931809,"MEAN_MOTION_DOT":-0.01513932,"MEAN_MOTION_DDOT":0.00066394638}]
